{
"type": "FeatureCollection",
"name": "match_links",
"crs": { "type": "name", "properties": { "name": "urn:ogc:def:crs:OGC:1.3:CRS84" } },
"features": [
{ "type": "Feature", "properties": { "matchId": "IDN-W-001::GRW::WIND::IDN::wind_sea_2024q2_v1.geojson::786", "projectId": "IDN-W-001", "siteId": "GRW::WIND::IDN::wind_sea_2024q2_v1.geojson::786", "projectName": "Sidrap I Wind Power Plant", "paperToPowerLabel": "observed_on_schedule", "matchConfidence": 0.925, "distanceKm": 0.24 }, "geometry": { "type": "LineString", "coordinates": [ [ 119.711472, -3.987306 ], [ 119.7110411, -3.9894223 ] ] } },
{ "type": "Feature", "properties": { "matchId": "MYS-S-002::GRW::SOLAR::MYS::solar_sea_2024q2_v1.geojson::952", "projectId": "MYS-S-002", "siteId": "GRW::SOLAR::MYS::solar_sea_2024q2_v1.geojson::952", "projectName": "Gurun Quantum Solar PV Park", "paperToPowerLabel": "observed_smaller_than_claimed", "matchConfidence": 0.91, "distanceKm": 0.059 }, "geometry": { "type": "LineString", "coordinates": [ [ 100.53893, 5.86295 ], [ 100.5385045, 5.8626366 ] ] } },
{ "type": "Feature", "properties": { "matchId": "SGP-S-001::GRW::SOLAR::SGP::solar_sea_2024q2_v1.geojson::435", "projectId": "SGP-S-001", "siteId": "GRW::SOLAR::SGP::solar_sea_2024q2_v1.geojson::435", "projectName": "Sembcorp Tengeh Floating Solar Farm", "paperToPowerLabel": "observed_smaller_than_claimed", "matchConfidence": 0.8725, "distanceKm": 1.563 }, "geometry": { "type": "LineString", "coordinates": [ [ 103.636, 1.3364 ], [ 103.6461682, 1.3461081 ] ] } },
{ "type": "Feature", "properties": { "matchId": "MYS-S-001::GRW::SOLAR::MYS::solar_sea_2024q2_v1.geojson::591", "projectId": "MYS-S-001", "siteId": "GRW::SOLAR::MYS::solar_sea_2024q2_v1.geojson::591", "projectName": "TNB Sepang Solar", "paperToPowerLabel": "observed_on_schedule", "matchConfidence": 0.785, "distanceKm": 10.597 }, "geometry": { "type": "LineString", "coordinates": [ [ 101.5275, 2.7483 ], [ 101.6152864, 2.7856231 ] ] } },
{ "type": "Feature", "properties": { "matchId": "PHL-S-003::GRW::SOLAR::PHL::solar_sea_2024q2_v1.geojson::603", "projectId": "PHL-S-003", "siteId": "GRW::SOLAR::PHL::solar_sea_2024q2_v1.geojson::603", "projectName": "Opus Solar Power Project", "paperToPowerLabel": "observed_smaller_than_claimed", "matchConfidence": 0.7475, "distanceKm": 4.198 }, "geometry": { "type": "LineString", "coordinates": [ [ 120.486786, 18.088064 ], [ 120.4856498, 18.0503255 ] ] } },
{ "type": "Feature", "properties": { "matchId": "VNM-S-002::GRW::SOLAR::VNM::solar_sea_2024q2_v1.geojson::653", "projectId": "VNM-S-002", "siteId": "GRW::SOLAR::VNM::solar_sea_2024q2_v1.geojson::653", "projectName": "Dau Tieng Solar Power Complex", "paperToPowerLabel": "observed_smaller_than_claimed", "matchConfidence": 0.6975, "distanceKm": 2.068 }, "geometry": { "type": "LineString", "coordinates": [ [ 106.2132, 11.45169 ], [ 106.2321732, 11.452089 ] ] } },
{ "type": "Feature", "properties": { "matchId": "VNM-S-001::GRW::SOLAR::VNM::solar_sea_2024q2_v1.geojson::270", "projectId": "VNM-S-001", "siteId": "GRW::SOLAR::VNM::solar_sea_2024q2_v1.geojson::270", "projectName": "Trungnam Solar Farm (Thuan Bac)", "paperToPowerLabel": "observed_smaller_than_claimed", "matchConfidence": 0.66, "distanceKm": 0.408 }, "geometry": { "type": "LineString", "coordinates": [ [ 109.0268, 11.68597 ], [ 109.0244551, 11.6888307 ] ] } },
{ "type": "Feature", "properties": { "matchId": "VNM-S-003::GRW::SOLAR::VNM::solar_sea_2024q2_v1.geojson::231", "projectId": "VNM-S-003", "siteId": "GRW::SOLAR::VNM::solar_sea_2024q2_v1.geojson::231", "projectName": "Xuan Thien Ea Sup Solar Power Complex", "paperToPowerLabel": "observed_smaller_than_claimed", "matchConfidence": 0.66, "distanceKm": 2.16 }, "geometry": { "type": "LineString", "coordinates": [ [ 107.88506, 13.06619 ], [ 107.8922619, 13.0480715 ] ] } },
{ "type": "Feature", "properties": { "matchId": "PHL-S-006::GRW::SOLAR::PHL::solar_sea_2024q2_v1.geojson::361", "projectId": "PHL-S-006", "siteId": "GRW::SOLAR::PHL::solar_sea_2024q2_v1.geojson::361", "projectName": "Armenia Solar Power Project", "paperToPowerLabel": "observed_smaller_than_claimed", "matchConfidence": 0.66, "distanceKm": 2.298 }, "geometry": { "type": "LineString", "coordinates": [ [ 120.551, 15.43 ], [ 120.5340636, 15.4173324 ] ] } },
{ "type": "Feature", "properties": { "matchId": "VNM-S-004::GRW::SOLAR::VNM::solar_sea_2024q2_v1.geojson::300", "projectId": "VNM-S-004", "siteId": "GRW::SOLAR::VNM::solar_sea_2024q2_v1.geojson::300", "projectName": "Hoa Hoi Solar Power Plant", "paperToPowerLabel": "observed_smaller_than_claimed", "matchConfidence": 0.66, "distanceKm": 4.086 }, "geometry": { "type": "LineString", "coordinates": [ [ 109.1558, 13.0489 ], [ 109.1372571, 13.0808956 ] ] } },
{ "type": "Feature", "properties": { "matchId": "PHL-S-004::GRW::SOLAR::PHL::solar_sea_2024q2_v1.geojson::17", "projectId": "PHL-S-004", "siteId": "GRW::SOLAR::PHL::solar_sea_2024q2_v1.geojson::17", "projectName": "Laoag Solar Power Project", "paperToPowerLabel": "observed_smaller_than_claimed", "matchConfidence": 0.6575, "distanceKm": 11.583 }, "geometry": { "type": "LineString", "coordinates": [ [ 120.23, 15.89 ], [ 120.1352792, 15.9405319 ] ] } },
{ "type": "Feature", "properties": { "matchId": "PHL-S-002::GRW::SOLAR::PHL::solar_sea_2024q2_v1.geojson::523", "projectId": "PHL-S-002", "siteId": "GRW::SOLAR::PHL::solar_sea_2024q2_v1.geojson::523", "projectName": "Cayanga-Bugallon Solar Power Plant", "paperToPowerLabel": "observed_smaller_than_claimed", "matchConfidence": 0.645, "distanceKm": 7.949 }, "geometry": { "type": "LineString", "coordinates": [ [ 120.1983, 15.9122 ], [ 120.1271107, 15.9327753 ] ] } },
{ "type": "Feature", "properties": { "matchId": "PHL-S-001::GRW::SOLAR::PHL::solar_sea_2024q2_v1.geojson::919", "projectId": "PHL-S-001", "siteId": "GRW::SOLAR::PHL::solar_sea_2024q2_v1.geojson::919", "projectName": "Olongapo Solar Power Project", "paperToPowerLabel": "observed_smaller_than_claimed", "matchConfidence": 0.6075, "distanceKm": 9.475 }, "geometry": { "type": "LineString", "coordinates": [ [ 120.2842, 14.8386 ], [ 120.3626647, 14.7997905 ] ] } },
{ "type": "Feature", "properties": { "matchId": "PHL-S-005::GRW::SOLAR::PHL::solar_sea_2024q2_v1.geojson::785", "projectId": "PHL-S-005", "siteId": "GRW::SOLAR::PHL::solar_sea_2024q2_v1.geojson::785", "projectName": "Calatrava Solar Power Project", "paperToPowerLabel": "observed_smaller_than_claimed", "matchConfidence": 0.6075, "distanceKm": 10.245 }, "geometry": { "type": "LineString", "coordinates": [ [ 123.477, 10.598 ], [ 123.4289912, 10.5188659 ] ] } }
]
}
