{
"type": "FeatureCollection",
"name": "matched_projects",
"crs": { "type": "name", "properties": { "name": "urn:ogc:def:crs:OGC:1.3:CRS84" } },
"features": [
{ "type": "Feature", "properties": { "projectId": "IDN-W-001", "projectName": "Sidrap I Wind Power Plant", "countryCode": "IDN", "technology": "wind", "paperToPowerLabel": "observed_on_schedule", "matchConfidence": 0.925, "distanceKm": 0.24 }, "geometry": { "type": "Point", "coordinates": [ 119.711472, -3.987306 ] } },
{ "type": "Feature", "properties": { "projectId": "MYS-S-002", "projectName": "Gurun Quantum Solar PV Park", "countryCode": "MYS", "technology": "solar", "paperToPowerLabel": "observed_smaller_than_claimed", "matchConfidence": 0.91, "distanceKm": 0.059 }, "geometry": { "type": "Point", "coordinates": [ 100.53893, 5.86295 ] } },
{ "type": "Feature", "properties": { "projectId": "SGP-S-001", "projectName": "Sembcorp Tengeh Floating Solar Farm", "countryCode": "SGP", "technology": "solar", "paperToPowerLabel": "observed_smaller_than_claimed", "matchConfidence": 0.8725, "distanceKm": 1.563 }, "geometry": { "type": "Point", "coordinates": [ 103.636, 1.3364 ] } },
{ "type": "Feature", "properties": { "projectId": "MYS-S-001", "projectName": "TNB Sepang Solar", "countryCode": "MYS", "technology": "solar", "paperToPowerLabel": "observed_on_schedule", "matchConfidence": 0.785, "distanceKm": 10.597 }, "geometry": { "type": "Point", "coordinates": [ 101.5275, 2.7483 ] } },
{ "type": "Feature", "properties": { "projectId": "PHL-S-003", "projectName": "Opus Solar Power Project", "countryCode": "PHL", "technology": "solar", "paperToPowerLabel": "observed_smaller_than_claimed", "matchConfidence": 0.7475, "distanceKm": 4.198 }, "geometry": { "type": "Point", "coordinates": [ 120.486786, 18.088064 ] } },
{ "type": "Feature", "properties": { "projectId": "VNM-S-002", "projectName": "Dau Tieng Solar Power Complex", "countryCode": "VNM", "technology": "solar", "paperToPowerLabel": "observed_smaller_than_claimed", "matchConfidence": 0.6975, "distanceKm": 2.068 }, "geometry": { "type": "Point", "coordinates": [ 106.2132, 11.45169 ] } },
{ "type": "Feature", "properties": { "projectId": "VNM-S-001", "projectName": "Trungnam Solar Farm (Thuan Bac)", "countryCode": "VNM", "technology": "solar", "paperToPowerLabel": "observed_smaller_than_claimed", "matchConfidence": 0.66, "distanceKm": 0.408 }, "geometry": { "type": "Point", "coordinates": [ 109.0268, 11.68597 ] } },
{ "type": "Feature", "properties": { "projectId": "VNM-S-003", "projectName": "Xuan Thien Ea Sup Solar Power Complex", "countryCode": "VNM", "technology": "solar", "paperToPowerLabel": "observed_smaller_than_claimed", "matchConfidence": 0.66, "distanceKm": 2.16 }, "geometry": { "type": "Point", "coordinates": [ 107.88506, 13.06619 ] } },
{ "type": "Feature", "properties": { "projectId": "PHL-S-006", "projectName": "Armenia Solar Power Project", "countryCode": "PHL", "technology": "solar", "paperToPowerLabel": "observed_smaller_than_claimed", "matchConfidence": 0.66, "distanceKm": 2.298 }, "geometry": { "type": "Point", "coordinates": [ 120.551, 15.43 ] } },
{ "type": "Feature", "properties": { "projectId": "VNM-S-004", "projectName": "Hoa Hoi Solar Power Plant", "countryCode": "VNM", "technology": "solar", "paperToPowerLabel": "observed_smaller_than_claimed", "matchConfidence": 0.66, "distanceKm": 4.086 }, "geometry": { "type": "Point", "coordinates": [ 109.1558, 13.0489 ] } },
{ "type": "Feature", "properties": { "projectId": "PHL-S-004", "projectName": "Laoag Solar Power Project", "countryCode": "PHL", "technology": "solar", "paperToPowerLabel": "observed_smaller_than_claimed", "matchConfidence": 0.6575, "distanceKm": 11.583 }, "geometry": { "type": "Point", "coordinates": [ 120.23, 15.89 ] } },
{ "type": "Feature", "properties": { "projectId": "PHL-S-002", "projectName": "Cayanga-Bugallon Solar Power Plant", "countryCode": "PHL", "technology": "solar", "paperToPowerLabel": "observed_smaller_than_claimed", "matchConfidence": 0.645, "distanceKm": 7.949 }, "geometry": { "type": "Point", "coordinates": [ 120.1983, 15.9122 ] } },
{ "type": "Feature", "properties": { "projectId": "PHL-S-001", "projectName": "Olongapo Solar Power Project", "countryCode": "PHL", "technology": "solar", "paperToPowerLabel": "observed_smaller_than_claimed", "matchConfidence": 0.6075, "distanceKm": 9.475 }, "geometry": { "type": "Point", "coordinates": [ 120.2842, 14.8386 ] } },
{ "type": "Feature", "properties": { "projectId": "PHL-S-005", "projectName": "Calatrava Solar Power Project", "countryCode": "PHL", "technology": "solar", "paperToPowerLabel": "observed_smaller_than_claimed", "matchConfidence": 0.6075, "distanceKm": 10.245 }, "geometry": { "type": "Point", "coordinates": [ 123.477, 10.598 ] } }
]
}
