{
"type": "FeatureCollection",
"name": "project_registry_points",
"crs": { "type": "name", "properties": { "name": "urn:ogc:def:crs:OGC:1.3:CRS84" } },
"features": [
{ "type": "Feature", "properties": { "projectId": "IDN-W-001", "sourceDataset": "Reviewed Seed Registry", "sourceFile": "reviewed_seed_promotion_candidates.json", "sourceRowNumber": 16, "projectName": "Sidrap I Wind Power Plant", "phaseName": null, "countryCode": "IDN", "countryName": "Indonesia", "technology": "wind", "claimedCapacityMw": 75.0, "claimedStatus": "operating", "claimedCod": "2018-04-05", "developer": "UPC Sidrap Bayu Energi", "owner": null, "locationText": "Pabbaresseng Mountains, Lainungan and Mattirotasi Villages, Watang Pulu", "provinceStateRegion": "South Sulawesi", "latitude": -3.987306, "longitude": 119.711472, "gemId": null, "sourcePrimaryUrl": "https://www.thewindpower.net/windfarm_en_24999_sidrap.php", "sourceSecondaryUrls": "https://barito-pacific.com/our-business/barito-wind-energy", "sourcePrimaryType": "Technical Database", "sourcePrimaryDate": "2018", "sourceConfidence": "high", "reviewStatus": "approved", "reviewerNotes": "Applied representative coordinates for the 30-turbine ridge layout and updated locality/source quality from the provided result.", "dataQualityFlags": "Representative point; ridge-layout wind farm" }, "geometry": { "type": "Point", "coordinates": [ 119.711472, -3.987306 ] } },
{ "type": "Feature", "properties": { "projectId": "MYS-S-001", "sourceDataset": "Reviewed Seed Registry", "sourceFile": "reviewed_seed_promotion_candidates.json", "sourceRowNumber": 15, "projectName": "TNB Sepang Solar", "phaseName": "LSS1", "countryCode": "MYS", "countryName": "Malaysia", "technology": "solar", "claimedCapacityMw": 50.0, "claimedStatus": "operating", "claimedCod": null, "developer": "TNB Renewables Sdn Bhd", "owner": "TNB Sepang Solar Sdn Bhd", "locationText": "Mukim Tanjung 12, Kuala Langat", "provinceStateRegion": "Selangor", "latitude": 2.7483, "longitude": 101.5275, "gemId": null, "sourcePrimaryUrl": "https://www.st.gov.my/", "sourceSecondaryUrls": "https://www.tnb.com.my/", "sourcePrimaryType": "Regulator Registry", "sourcePrimaryDate": "2018-11-01", "sourceConfidence": "high", "reviewStatus": "approved", "reviewerNotes": "Applied representative coordinates from the provided result.", "dataQualityFlags": "Representative point for LSS site" }, "geometry": { "type": "Point", "coordinates": [ 101.5275, 2.7483 ] } },
{ "type": "Feature", "properties": { "projectId": "MYS-S-002", "sourceDataset": "Reviewed Seed Registry", "sourceFile": "reviewed_seed_promotion_candidates.json", "sourceRowNumber": 8, "projectName": "Gurun Quantum Solar PV Park", "phaseName": "LSS2", "countryCode": "MYS", "countryName": "Malaysia", "technology": "solar", "claimedCapacityMw": 65.0, "claimedStatus": "operating", "claimedCod": "2018-12", "developer": "Quantum Solar Park (Kedah) Sdn Bhd", "owner": "Quantum Solar Park (Kedah) Sdn Bhd", "locationText": "Jln Kampung Paya Mat Insun, Pendang", "provinceStateRegion": "Kedah", "latitude": 5.86295, "longitude": 100.53893, "gemId": null, "sourcePrimaryUrl": "http://eprints.utar.edu.my/4992/1/MEEK25110_EdbertHuamJunPing_2102592_EEC.pdf", "sourceSecondaryUrls": "https://www.power-technology.com/data-insights/power-plant-profile-gurun-quantum-solar-pv-park-malaysia/", "sourcePrimaryType": "Academic Thesis", "sourcePrimaryDate": "2021", "sourceConfidence": "high", "reviewStatus": "approved", "reviewerNotes": "Applied exact coordinates and updated project name/locality from the provided table.", "dataQualityFlags": "None" }, "geometry": { "type": "Point", "coordinates": [ 100.53893, 5.86295 ] } },
{ "type": "Feature", "properties": { "projectId": "PHL-S-001", "sourceDataset": "Reviewed Seed Registry", "sourceFile": "reviewed_seed_promotion_candidates.json", "sourceRowNumber": 1, "projectName": "Olongapo Solar Power Project", "phaseName": null, "countryCode": "PHL", "countryName": "Philippines", "technology": "solar", "claimedCapacityMw": 221.082, "claimedStatus": "construction", "claimedCod": "2025-09", "developer": "Aboitiz Renewables", "owner": "AP Renewable Energy Corporation", "locationText": "Olongapo City", "provinceStateRegion": "Zambales", "latitude": 14.8386, "longitude": 120.2842, "gemId": null, "sourcePrimaryUrl": "https://www.doe.gov.ph/sites/default/files/pdf/renewable_energy/awarded_solar_2023-10-31.pdf", "sourceSecondaryUrls": "https://mercomcapital.com/aboitiz-renewables-secures-129-million-for-221-mw-solar-project/", "sourcePrimaryType": "Government Registry", "sourcePrimaryDate": "2023-10-31", "sourceConfidence": "high", "reviewStatus": "approved", "reviewerNotes": "Applied representative coordinates and DOE-backed locality from the provided result.", "dataQualityFlags": "Representative point; exact site boundaries not public" }, "geometry": { "type": "Point", "coordinates": [ 120.2842, 14.8386 ] } },
{ "type": "Feature", "properties": { "projectId": "PHL-S-002", "sourceDataset": "Reviewed Seed Registry", "sourceFile": "reviewed_seed_promotion_candidates.json", "sourceRowNumber": 2, "projectName": "Cayanga-Bugallon Solar Power Plant", "phaseName": null, "countryCode": "PHL", "countryName": "Philippines", "technology": "solar", "claimedCapacityMw": 94.717, "claimedStatus": "operating", "claimedCod": "2024-07", "developer": "Aboitiz Renewables", "owner": "PV Sinag Power Inc.", "locationText": "Barangays Cayanga, Salomague Sur, and Salomague Norte, Municipality of Bugallon", "provinceStateRegion": "Pangasinan", "latitude": 15.9122, "longitude": 120.1983, "gemId": null, "sourcePrimaryUrl": "https://aboitizpower.com/static-assets/uploads/pdf/ap-bonds---preliminary-prospectus-2025.04.29.pdf", "sourceSecondaryUrls": "https://r1.emb.gov.ph/wp-content/uploads/2022/07/PDS-with-Annexes-for-submission-071422.xcg_.pdf", "sourcePrimaryType": "Developer Prospectus", "sourcePrimaryDate": "2025-04-29", "sourceConfidence": "high", "reviewStatus": "approved", "reviewerNotes": "Applied representative project-area coordinates and updated site locality from the provided table.", "dataQualityFlags": "Representative point; competing 650 MW project overlaps same barangays" }, "geometry": { "type": "Point", "coordinates": [ 120.1983, 15.9122 ] } },
{ "type": "Feature", "properties": { "projectId": "PHL-S-003", "sourceDataset": "Reviewed Seed Registry", "sourceFile": "reviewed_seed_promotion_candidates.json", "sourceRowNumber": 10, "projectName": "Opus Solar Power Project", "phaseName": null, "countryCode": "PHL", "countryName": "Philippines", "technology": "solar", "claimedCapacityMw": 300.0, "claimedStatus": "pre-construction", "claimedCod": null, "developer": "Vena Energy", "owner": "Vena Energy", "locationText": "Barangays Bacsil and Mumulaan, Municipality of Paoay", "provinceStateRegion": "Ilocos Norte", "latitude": 18.088064, "longitude": 120.486786, "gemId": null, "sourcePrimaryUrl": "https://r1.emb.gov.ph/wp-content/uploads/2024/07/Project-Description-for-Scoping.pdf", "sourceSecondaryUrls": "https://solarquarter.com/2025/08/22/vena-group-expands-renewable-energy-footprint-across-asia-pacific/", "sourcePrimaryType": "Official Environmental Filing", "sourcePrimaryDate": "2024", "sourceConfidence": "high", "reviewStatus": "approved", "reviewerNotes": "Applied the representative point extracted from Boundary Point 1 in the DENR-EMB scoping document.", "dataQualityFlags": "Representative point from official project boundary table" }, "geometry": { "type": "Point", "coordinates": [ 120.486786, 18.088064 ] } },
{ "type": "Feature", "properties": { "projectId": "PHL-S-004", "sourceDataset": "Reviewed Seed Registry", "sourceFile": "reviewed_seed_promotion_candidates.json", "sourceRowNumber": 3, "projectName": "Laoag Solar Power Project", "phaseName": null, "countryCode": "PHL", "countryName": "Philippines", "technology": "solar", "claimedCapacityMw": 159.0, "claimedStatus": "construction", "claimedCod": null, "developer": "Aboitiz Renewables", "owner": "PV Sinag Power, Inc.", "locationText": "Brgy. Laoag, Aguilar", "provinceStateRegion": "Pangasinan", "latitude": 15.89, "longitude": 120.23, "gemId": null, "sourcePrimaryUrl": "https://aboitizpower.com/news/aboitizpower-starts-construction-of-159-mwp-pangasinan-solar-plant", "sourceSecondaryUrls": "https://www.scribd.com/document/868095846/Awarded-Solar-Power-Projects", "sourcePrimaryType": "Developer Press Release", "sourcePrimaryDate": "2023-05-17", "sourceConfidence": "high", "reviewStatus": "approved", "reviewerNotes": "Applied representative coordinates for the Aguilar, Pangasinan project while retaining the known naming ambiguity.", "dataQualityFlags": "Representative point; project naming ambiguity remains" }, "geometry": { "type": "Point", "coordinates": [ 120.23, 15.89 ] } },
{ "type": "Feature", "properties": { "projectId": "PHL-S-005", "sourceDataset": "Reviewed Seed Registry", "sourceFile": "reviewed_seed_promotion_candidates.json", "sourceRowNumber": 4, "projectName": "Calatrava Solar Power Project", "phaseName": null, "countryCode": "PHL", "countryName": "Philippines", "technology": "solar", "claimedCapacityMw": 168.953, "claimedStatus": "operating", "claimedCod": "2024-12", "developer": "Aboitiz Renewables", "owner": null, "locationText": "Brgy. San Isidro, Calatrava", "provinceStateRegion": "Negros Occidental", "latitude": 10.598, "longitude": 123.477, "gemId": null, "sourcePrimaryUrl": "https://www.doe.gov.ph/sites/default/files/pdf/renewable_energy/awarded_solar_2023-10-31.pdf", "sourceSecondaryUrls": null, "sourcePrimaryType": "Government Registry", "sourcePrimaryDate": "2023-10-31", "sourceConfidence": "high", "reviewStatus": "approved", "reviewerNotes": "Applied representative coordinates and DOE-backed locality from the provided result.", "dataQualityFlags": "Representative point; exact site coordinates not public" }, "geometry": { "type": "Point", "coordinates": [ 123.477, 10.598 ] } },
{ "type": "Feature", "properties": { "projectId": "PHL-S-006", "sourceDataset": "Reviewed Seed Registry", "sourceFile": "reviewed_seed_promotion_candidates.json", "sourceRowNumber": 5, "projectName": "Armenia Solar Power Project", "phaseName": null, "countryCode": "PHL", "countryName": "Philippines", "technology": "solar", "claimedCapacityMw": 46.658, "claimedStatus": "operating", "claimedCod": "2024-11", "developer": "Aboitiz Renewables", "owner": null, "locationText": "Brgy. Armenia, Tarlac City", "provinceStateRegion": "Tarlac", "latitude": 15.43, "longitude": 120.551, "gemId": null, "sourcePrimaryUrl": "https://aboitizpower.com/", "sourceSecondaryUrls": null, "sourcePrimaryType": "Developer Portfolio", "sourcePrimaryDate": "2023-08-01", "sourceConfidence": "high", "reviewStatus": "approved", "reviewerNotes": "Applied representative coordinates and barangay-level locality from the provided result.", "dataQualityFlags": "Representative point; precise footprint mapping unavailable" }, "geometry": { "type": "Point", "coordinates": [ 120.551, 15.43 ] } },
{ "type": "Feature", "properties": { "projectId": "SGP-S-001", "sourceDataset": "Reviewed Seed Registry", "sourceFile": "reviewed_seed_promotion_candidates.json", "sourceRowNumber": 9, "projectName": "Sembcorp Tengeh Floating Solar Farm", "phaseName": null, "countryCode": "SGP", "countryName": "Singapore", "technology": "solar", "claimedCapacityMw": 60.0, "claimedStatus": "operating", "claimedCod": "2021-07-14", "developer": "Sembcorp Industries", "owner": "Sembcorp Industries", "locationText": "Tengeh Reservoir", "provinceStateRegion": "West Region", "latitude": 1.3364, "longitude": 103.636, "gemId": null, "sourcePrimaryUrl": "https://www.pub.gov.sg/public/Publications/Press-Releases/2021/Singapore-Unveils-One-of-the-World-Largest-Floating-Solar-Farms", "sourceSecondaryUrls": "https://www.sembcorp.com/", "sourcePrimaryType": "Utility Press Release", "sourcePrimaryDate": "2021-07-14", "sourceConfidence": "high", "reviewStatus": "approved", "reviewerNotes": "Applied representative reservoir coordinates for mapping. The underlying asset remains a dispersed multi-island footprint.", "dataQualityFlags": "Representative point for reservoir-scale floating system" }, "geometry": { "type": "Point", "coordinates": [ 103.636, 1.3364 ] } },
{ "type": "Feature", "properties": { "projectId": "VNM-S-001", "sourceDataset": "Reviewed Seed Registry", "sourceFile": "reviewed_seed_promotion_candidates.json", "sourceRowNumber": 11, "projectName": "Trungnam Solar Farm (Thuan Bac)", "phaseName": null, "countryCode": "VNM", "countryName": "Vietnam", "technology": "solar", "claimedCapacityMw": 204.0, "claimedStatus": "operating", "claimedCod": "2025-01-13", "developer": "Trung Nam", "owner": null, "locationText": "Phuoc Minh Commune, Thuan Bac District", "provinceStateRegion": "Ninh Thuan", "latitude": 11.68597, "longitude": 109.0268, "gemId": null, "sourcePrimaryUrl": "https://data.opendevelopmentmekong.net/dataset/16fdd64a-86a9-46f9-a794-c0ef25d810e9/resource/9640d37d-53ca-42fb-83a0-04de89228f1d/download/mekong-power-generation.xlsx", "sourceSecondaryUrls": "https://www.thewindpower.net/windfarm_en_27453_trung-nam-i.php", "sourcePrimaryType": "Technical Database", "sourcePrimaryDate": "2021", "sourceConfidence": "medium", "reviewStatus": "approved", "reviewerNotes": "Applied the coordinate-backed Thuan Bac site. Approved because the point is explicit in the technical dataset, while noting the broader naming ambiguity.", "dataQualityFlags": "Representative point; project name ambiguity within Trung Nam portfolio" }, "geometry": { "type": "Point", "coordinates": [ 109.0268, 11.68597 ] } },
{ "type": "Feature", "properties": { "projectId": "VNM-S-002", "sourceDataset": "Reviewed Seed Registry", "sourceFile": "reviewed_seed_promotion_candidates.json", "sourceRowNumber": 12, "projectName": "Dau Tieng Solar Power Complex", "phaseName": "1 & 2", "countryCode": "VNM", "countryName": "Vietnam", "technology": "solar", "claimedCapacityMw": 350.0, "claimedStatus": "operating", "claimedCod": "2025-01-13", "developer": null, "owner": null, "locationText": "Suoi Da Commune, Duong Minh Chau District", "provinceStateRegion": "Tay Ninh", "latitude": 11.45169, "longitude": 106.2132, "gemId": null, "sourcePrimaryUrl": "https://data.opendevelopmentmekong.net/dataset/16fdd64a-86a9-46f9-a794-c0ef25d810e9/resource/9640d37d-53ca-42fb-83a0-04de89228f1d/download/mekong-power-generation.xlsx", "sourceSecondaryUrls": "https://en.wikipedia.org/wiki/Dau_Tieng_Solar_Power_Project, https://www.adb.org/sites/default/files/project-documents/54013/54013-001-esmr-en_7.pdf", "sourcePrimaryType": "Technical Database", "sourcePrimaryDate": "2021", "sourceConfidence": "high", "reviewStatus": "approved", "reviewerNotes": "Applied the coordinate-backed representative point for the Dau Tieng complex.", "dataQualityFlags": "Representative point for multi-phase complex" }, "geometry": { "type": "Point", "coordinates": [ 106.2132, 11.45169 ] } },
{ "type": "Feature", "properties": { "projectId": "VNM-S-003", "sourceDataset": "Reviewed Seed Registry", "sourceFile": "reviewed_seed_promotion_candidates.json", "sourceRowNumber": 13, "projectName": "Xuan Thien Ea Sup Solar Power Complex", "phaseName": "1, 2, 3, 4, 5", "countryCode": "VNM", "countryName": "Vietnam", "technology": "solar", "claimedCapacityMw": 600.0, "claimedStatus": "operating", "claimedCod": "2025-01-13", "developer": "Xuan Thien Group", "owner": null, "locationText": "Ia Lop Commune, Ea Sup District", "provinceStateRegion": "Dak Lak", "latitude": 13.06619, "longitude": 107.88506, "gemId": null, "sourcePrimaryUrl": "https://maps.apple.com/place?auid=921833422019915198", "sourceSecondaryUrls": "https://theinvestor.vn/vietnam-central-highlands-province-revokes-132-hectares-designated-for-solar-power-project-d8336.html", "sourcePrimaryType": "Reputable Map Database", "sourcePrimaryDate": "2020", "sourceConfidence": "medium", "reviewStatus": "approved", "reviewerNotes": "Applied the representative point for the Ea Sup complex and retained medium confidence because the source is map-style rather than a formal planning filing.", "dataQualityFlags": "Representative centroid for very large complex" }, "geometry": { "type": "Point", "coordinates": [ 107.88506, 13.06619 ] } },
{ "type": "Feature", "properties": { "projectId": "VNM-S-004", "sourceDataset": "Reviewed Seed Registry", "sourceFile": "reviewed_seed_promotion_candidates.json", "sourceRowNumber": 14, "projectName": "Hoa Hoi Solar Power Plant", "phaseName": null, "countryCode": "VNM", "countryName": "Vietnam", "technology": "solar", "claimedCapacityMw": 214.0, "claimedStatus": "operating", "claimedCod": "2025-01-13", "developer": null, "owner": null, "locationText": "Hoa Hoi Commune, Phu Hoa District", "provinceStateRegion": "Phu Yen", "latitude": 13.0489, "longitude": 109.1558, "gemId": null, "sourcePrimaryUrl": "https://www.adb.org/projects/53166-001/main", "sourceSecondaryUrls": null, "sourcePrimaryType": "Multilateral Bank Database", "sourcePrimaryDate": "2019-06-01", "sourceConfidence": "high", "reviewStatus": "approved", "reviewerNotes": "Applied representative coordinates from the provided result.", "dataQualityFlags": "Representative point for operational plant" }, "geometry": { "type": "Point", "coordinates": [ 109.1558, 13.0489 ] } },
{ "type": "Feature", "properties": { "projectId": "VNM-W-001", "sourceDataset": "Reviewed Seed Registry", "sourceFile": "reviewed_seed_promotion_candidates.json", "sourceRowNumber": 6, "projectName": "Dien Bien 1 Wind Power Plant", "phaseName": null, "countryCode": "VNM", "countryName": "Vietnam", "technology": "wind", "claimedCapacityMw": 175.0, "claimedStatus": "announced", "claimedCod": "2025-2030", "developer": "BCG", "owner": null, "locationText": "Dien Bien Province", "provinceStateRegion": "Dien Bien", "latitude": 21.386, "longitude": 103.018, "gemId": null, "sourcePrimaryUrl": "https://bcgenergy.com.vn/en/projects", "sourceSecondaryUrls": null, "sourcePrimaryType": "Developer Website", "sourcePrimaryDate": "2022-01-01", "sourceConfidence": "medium", "reviewStatus": "approved", "reviewerNotes": "Applied representative province-level coordinates from the provided result.", "dataQualityFlags": "Representative point; specific commune/district details not public" }, "geometry": { "type": "Point", "coordinates": [ 103.018, 21.386 ] } },
{ "type": "Feature", "properties": { "projectId": "VNM-W-002", "sourceDataset": "Reviewed Seed Registry", "sourceFile": "reviewed_seed_promotion_candidates.json", "sourceRowNumber": 7, "projectName": "Nam Bung Wind Power Plant", "phaseName": null, "countryCode": "VNM", "countryName": "Vietnam", "technology": "wind", "claimedCapacityMw": 200.0, "claimedStatus": "announced", "claimedCod": null, "developer": null, "owner": null, "locationText": "Nam Bung and Nam Lan Communes, Van Chan District", "provinceStateRegion": "Yen Bai", "latitude": 21.735, "longitude": 104.281, "gemId": null, "sourcePrimaryUrl": "https://yenbai.gov.vn/", "sourceSecondaryUrls": null, "sourcePrimaryType": "Provincial Planning Document", "sourcePrimaryDate": "2022-05-01", "sourceConfidence": "high", "reviewStatus": "approved", "reviewerNotes": "Applied representative coordinates and commune-level locality from the provided result.", "dataQualityFlags": "Representative point; exact turbine layouts not public" }, "geometry": { "type": "Point", "coordinates": [ 104.281, 21.735 ] } }
]
}
