{
"type": "FeatureCollection",
"name": "site_context_features",
"crs": { "type": "name", "properties": { "name": "urn:ogc:def:crs:OGC:1.3:CRS84" } },
"features": [
{ "type": "Feature", "properties": { "projectId": "IDN-W-001", "projectName": "Sidrap I Wind Power Plant", "countryCode": "IDN", "technology": "wind", "paperToPowerLabel": "observed_on_schedule", "contextScoreVersion": "v2-local-graph", "contextScore": 0.72, "partialContextScore": 1.0, "proximityContextScore": 0.743, "graphContextScoreVersion": "v2-local-graph", "graphContextScore": 0.665, "nearbyObservedAssetCount5km": 27, "nearbySameTechAssetCount5km": 27, "nearestSameTechObservedDistanceKm": 0.0, "matchedLandCoverClass": "landcover_10", "roadDistanceKm": 4.976, "settlementDistanceKm": 0.992, "landUseDistanceKm": 1.91, "substationDistanceKm": 2.345, "transmissionDistanceKm": 2.471, "nearestLandUse": "forest", "roadAccessScore": 0.55, "settlementProximityScore": 1.0, "landUseAdjacencyScore": 0.15, "substationAccessScore": 1.0, "transmissionProxyScore": 0.8, "graphNodeCount": 24, "graphEdgeCount": 32, "connectedSubstationCount30km": 3, "connectedTransmissionCount20km": 15, "directConnectedSubstationCount": 1, "directConnectedTransmissionCount": 2, "metadataRichSubstationCount30km": 3, "metadataRichTransmissionCount20km": 16, "distributionSubstationCount30km": 0, "gridConnectionCandidateCount": 3, "hasConnectedGridCandidate": true, "roadSettlementSupportFlag": 1, "graphGridPathSteps": 1.0, "nearestConnectedSubstationDistanceKm": 8.911, "nearestSiteSideGridDistanceKm": 2.471, "substationTransmissionBridgeCount": 24, "metadataRichBridgeCount": 17, "maxNearbyGridVoltageKv": 150.0, "gridMetadataScore": 0.78, "gridEvidenceClass": "transmission_grade_connected", "gridEvidenceReason": "1 direct connected substations within 2.5 km, 16 transmission lines, 17 credible substation-line bridges; max mapped voltage 150 kV.", "pendingSignals": [ ] }, "geometry": { "type": "Point", "coordinates": [ 119.711472, -3.987306 ] } },
{ "type": "Feature", "properties": { "projectId": "MYS-S-001", "projectName": "TNB Sepang Solar", "countryCode": "MYS", "technology": "solar", "paperToPowerLabel": "observed_on_schedule", "contextScoreVersion": "v2-local-graph", "contextScore": 0.76, "partialContextScore": 0.1, "proximityContextScore": 0.738, "graphContextScoreVersion": "v2-local-graph", "graphContextScore": 0.813, "nearbyObservedAssetCount5km": 1, "nearbySameTechAssetCount5km": 1, "nearestSameTechObservedDistanceKm": 0.0, "matchedLandCoverClass": "landcover_10", "roadDistanceKm": 2.59, "settlementDistanceKm": 7.571, "landUseDistanceKm": 2.641, "substationDistanceKm": 0.565, "transmissionDistanceKm": 0.406, "nearestLandUse": "orchard", "roadAccessScore": 0.8, "settlementProximityScore": 0.8, "landUseAdjacencyScore": 0.55, "substationAccessScore": 1.0, "transmissionProxyScore": 1.0, "graphNodeCount": 31, "graphEdgeCount": 34, "connectedSubstationCount30km": 5, "connectedTransmissionCount20km": 16, "directConnectedSubstationCount": 1, "directConnectedTransmissionCount": 2, "metadataRichSubstationCount30km": 5, "metadataRichTransmissionCount20km": 19, "distributionSubstationCount30km": 2, "gridConnectionCandidateCount": 3, "hasConnectedGridCandidate": true, "roadSettlementSupportFlag": 1, "graphGridPathSteps": 1.0, "nearestConnectedSubstationDistanceKm": 2.796, "nearestSiteSideGridDistanceKm": 0.939, "substationTransmissionBridgeCount": 26, "metadataRichBridgeCount": 22, "maxNearbyGridVoltageKv": 500.0, "gridMetadataScore": 1.0, "gridEvidenceClass": "transmission_grade_connected", "gridEvidenceReason": "1 direct connected substations within 0.9 km, 19 transmission lines, 22 credible substation-line bridges; max mapped voltage 500 kV.", "pendingSignals": [ ] }, "geometry": { "type": "Point", "coordinates": [ 101.5275, 2.7483 ] } },
{ "type": "Feature", "properties": { "projectId": "MYS-S-002", "projectName": "Gurun Quantum Solar PV Park", "countryCode": "MYS", "technology": "solar", "paperToPowerLabel": "observed_smaller_than_claimed", "contextScoreVersion": "v2-local-graph", "contextScore": 0.794, "partialContextScore": 0.1, "proximityContextScore": 0.785, "graphContextScoreVersion": "v2-local-graph", "graphContextScore": 0.814, "nearbyObservedAssetCount5km": 1, "nearbySameTechAssetCount5km": 1, "nearestSameTechObservedDistanceKm": 0.0, "matchedLandCoverClass": "landcover_10", "roadDistanceKm": 0.418, "settlementDistanceKm": 2.179, "landUseDistanceKm": 1.154, "substationDistanceKm": 3.869, "transmissionDistanceKm": 0.454, "nearestLandUse": "industrial", "roadAccessScore": 1.0, "settlementProximityScore": 1.0, "landUseAdjacencyScore": 0.8, "substationAccessScore": 0.75, "transmissionProxyScore": 1.0, "graphNodeCount": 42, "graphEdgeCount": 38, "connectedSubstationCount30km": 4, "connectedTransmissionCount20km": 23, "directConnectedSubstationCount": 1, "directConnectedTransmissionCount": 3, "metadataRichSubstationCount30km": 5, "metadataRichTransmissionCount20km": 31, "distributionSubstationCount30km": 0, "gridConnectionCandidateCount": 4, "hasConnectedGridCandidate": true, "roadSettlementSupportFlag": 1, "graphGridPathSteps": 1.0, "nearestConnectedSubstationDistanceKm": 5.278, "nearestSiteSideGridDistanceKm": 0.454, "substationTransmissionBridgeCount": 30, "metadataRichBridgeCount": 25, "maxNearbyGridVoltageKv": 300.0, "gridMetadataScore": 0.96, "gridEvidenceClass": "transmission_grade_connected", "gridEvidenceReason": "1 direct connected substations within 0.5 km, 31 transmission lines, 25 credible substation-line bridges; max mapped voltage 300 kV.", "pendingSignals": [ ] }, "geometry": { "type": "Point", "coordinates": [ 100.53893, 5.86295 ] } },
{ "type": "Feature", "properties": { "projectId": "PHL-S-001", "projectName": "Olongapo Solar Power Project", "countryCode": "PHL", "technology": "solar", "paperToPowerLabel": "observed_smaller_than_claimed", "contextScoreVersion": "v2-local-graph", "contextScore": 0.576, "partialContextScore": 0.4, "proximityContextScore": 0.67, "graphContextScoreVersion": "v2-local-graph", "graphContextScore": 0.358, "nearbyObservedAssetCount5km": 4, "nearbySameTechAssetCount5km": 4, "nearestSameTechObservedDistanceKm": 0.0, "matchedLandCoverClass": "landcover_10", "roadDistanceKm": 3.525, "settlementDistanceKm": 2.327, "landUseDistanceKm": 6.514, "substationDistanceKm": 0.27, "transmissionDistanceKm": 0.396, "nearestLandUse": "industrial", "roadAccessScore": 0.55, "settlementProximityScore": 1.0, "landUseAdjacencyScore": 0.0, "substationAccessScore": 1.0, "transmissionProxyScore": 1.0, "graphNodeCount": 37, "graphEdgeCount": 25, "connectedSubstationCount30km": 1, "connectedTransmissionCount20km": 0, "directConnectedSubstationCount": 1, "directConnectedTransmissionCount": 0, "metadataRichSubstationCount30km": 1, "metadataRichTransmissionCount20km": 20, "distributionSubstationCount30km": 1, "gridConnectionCandidateCount": 1, "hasConnectedGridCandidate": true, "roadSettlementSupportFlag": 1, "graphGridPathSteps": 1.0, "nearestConnectedSubstationDistanceKm": 6.505, "nearestSiteSideGridDistanceKm": 6.505, "substationTransmissionBridgeCount": 17, "metadataRichBridgeCount": 1, "maxNearbyGridVoltageKv": 500.0, "gridMetadataScore": 0.495, "gridEvidenceClass": "power_infrastructure_nearby_but_ambiguous", "gridEvidenceReason": "max mapped voltage 500 kV; 1 substations, 20 transmission lines, 1 credible bridges, but no confirmed site-side connected candidate.", "pendingSignals": [ ] }, "geometry": { "type": "Point", "coordinates": [ 120.2842, 14.8386 ] } },
{ "type": "Feature", "properties": { "projectId": "PHL-S-002", "projectName": "Cayanga-Bugallon Solar Power Plant", "countryCode": "PHL", "technology": "solar", "paperToPowerLabel": "observed_smaller_than_claimed", "contextScoreVersion": "v2-local-graph", "contextScore": 0.86, "partialContextScore": 1.0, "proximityContextScore": 0.894, "graphContextScoreVersion": "v2-local-graph", "graphContextScore": 0.782, "nearbyObservedAssetCount5km": 12, "nearbySameTechAssetCount5km": 12, "nearestSameTechObservedDistanceKm": 0.0, "matchedLandCoverClass": "landcover_10", "roadDistanceKm": 3.648, "settlementDistanceKm": 4.57, "landUseDistanceKm": null, "substationDistanceKm": 1.053, "transmissionDistanceKm": 0.825, "nearestLandUse": null, "roadAccessScore": 0.55, "settlementProximityScore": 1.0, "landUseAdjacencyScore": null, "substationAccessScore": 1.0, "transmissionProxyScore": 1.0, "graphNodeCount": 63, "graphEdgeCount": 66, "connectedSubstationCount30km": 3, "connectedTransmissionCount20km": 37, "directConnectedSubstationCount": 1, "directConnectedTransmissionCount": 3, "metadataRichSubstationCount30km": 3, "metadataRichTransmissionCount20km": 41, "distributionSubstationCount30km": 0, "gridConnectionCandidateCount": 4, "hasConnectedGridCandidate": true, "roadSettlementSupportFlag": 1, "graphGridPathSteps": 1.0, "nearestConnectedSubstationDistanceKm": 6.24, "nearestSiteSideGridDistanceKm": 0.825, "substationTransmissionBridgeCount": 58, "metadataRichBridgeCount": 38, "maxNearbyGridVoltageKv": 500.0, "gridMetadataScore": 0.84, "gridEvidenceClass": "transmission_grade_connected", "gridEvidenceReason": "1 direct connected substations within 0.8 km, 41 transmission lines, 38 credible substation-line bridges; max mapped voltage 500 kV.", "pendingSignals": [ ] }, "geometry": { "type": "Point", "coordinates": [ 120.1983, 15.9122 ] } },
{ "type": "Feature", "properties": { "projectId": "PHL-S-003", "projectName": "Opus Solar Power Project", "countryCode": "PHL", "technology": "solar", "paperToPowerLabel": "observed_smaller_than_claimed", "contextScoreVersion": "v2-local-graph", "contextScore": 0.796, "partialContextScore": 0.2, "proximityContextScore": 0.79, "graphContextScoreVersion": "v2-local-graph", "graphContextScore": 0.809, "nearbyObservedAssetCount5km": 2, "nearbySameTechAssetCount5km": 2, "nearestSameTechObservedDistanceKm": 0.0, "matchedLandCoverClass": "landcover_10", "roadDistanceKm": 0.001, "settlementDistanceKm": 0.993, "landUseDistanceKm": 2.885, "substationDistanceKm": 0.403, "transmissionDistanceKm": 0.522, "nearestLandUse": "religious", "roadAccessScore": 1.0, "settlementProximityScore": 1.0, "landUseAdjacencyScore": 0.4, "substationAccessScore": 1.0, "transmissionProxyScore": 1.0, "graphNodeCount": 17, "graphEdgeCount": 17, "connectedSubstationCount30km": 3, "connectedTransmissionCount20km": 7, "directConnectedSubstationCount": 3, "directConnectedTransmissionCount": 2, "metadataRichSubstationCount30km": 3, "metadataRichTransmissionCount20km": 10, "distributionSubstationCount30km": 1, "gridConnectionCandidateCount": 5, "hasConnectedGridCandidate": true, "roadSettlementSupportFlag": 1, "graphGridPathSteps": 1.0, "nearestConnectedSubstationDistanceKm": 0.403, "nearestSiteSideGridDistanceKm": 0.403, "substationTransmissionBridgeCount": 9, "metadataRichBridgeCount": 8, "maxNearbyGridVoltageKv": 230.0, "gridMetadataScore": 0.83, "gridEvidenceClass": "transmission_grade_connected", "gridEvidenceReason": "3 direct connected substations within 0.4 km, 10 transmission lines, 8 credible substation-line bridges; max mapped voltage 230 kV.", "pendingSignals": [ ] }, "geometry": { "type": "Point", "coordinates": [ 120.486786, 18.088064 ] } },
{ "type": "Feature", "properties": { "projectId": "PHL-S-004", "projectName": "Laoag Solar Power Project", "countryCode": "PHL", "technology": "solar", "paperToPowerLabel": "observed_smaller_than_claimed", "contextScoreVersion": "v2-local-graph", "contextScore": 0.767, "partialContextScore": 1.0, "proximityContextScore": 0.76, "graphContextScoreVersion": "v2-local-graph", "graphContextScore": 0.782, "nearbyObservedAssetCount5km": 12, "nearbySameTechAssetCount5km": 12, "nearestSameTechObservedDistanceKm": 0.0, "matchedLandCoverClass": "landcover_10", "roadDistanceKm": 4.205, "settlementDistanceKm": 4.019, "landUseDistanceKm": 12.671, "substationDistanceKm": 0.072, "transmissionDistanceKm": 0.061, "nearestLandUse": "basin", "roadAccessScore": 0.55, "settlementProximityScore": 1.0, "landUseAdjacencyScore": 0.0, "substationAccessScore": 1.0, "transmissionProxyScore": 1.0, "graphNodeCount": 37, "graphEdgeCount": 40, "connectedSubstationCount30km": 3, "connectedTransmissionCount20km": 15, "directConnectedSubstationCount": 1, "directConnectedTransmissionCount": 3, "metadataRichSubstationCount30km": 3, "metadataRichTransmissionCount20km": 15, "distributionSubstationCount30km": 0, "gridConnectionCandidateCount": 4, "hasConnectedGridCandidate": true, "roadSettlementSupportFlag": 1, "graphGridPathSteps": 1.0, "nearestConnectedSubstationDistanceKm": 4.974, "nearestSiteSideGridDistanceKm": 0.061, "substationTransmissionBridgeCount": 32, "metadataRichBridgeCount": 16, "maxNearbyGridVoltageKv": 500.0, "gridMetadataScore": 0.84, "gridEvidenceClass": "transmission_grade_connected", "gridEvidenceReason": "1 direct connected substations within 0.1 km, 15 transmission lines, 16 credible substation-line bridges; max mapped voltage 500 kV.", "pendingSignals": [ ] }, "geometry": { "type": "Point", "coordinates": [ 120.23, 15.89 ] } },
{ "type": "Feature", "properties": { "projectId": "PHL-S-005", "projectName": "Calatrava Solar Power Project", "countryCode": "PHL", "technology": "solar", "paperToPowerLabel": "observed_smaller_than_claimed", "contextScoreVersion": "v2-local-graph", "contextScore": 0.691, "partialContextScore": 0.1, "proximityContextScore": 0.675, "graphContextScoreVersion": "v2-local-graph", "graphContextScore": 0.728, "nearbyObservedAssetCount5km": 1, "nearbySameTechAssetCount5km": 1, "nearestSameTechObservedDistanceKm": 0.0, "matchedLandCoverClass": "landcover_10", "roadDistanceKm": 1.087, "settlementDistanceKm": 0.099, "landUseDistanceKm": 6.837, "substationDistanceKm": 0.482, "transmissionDistanceKm": 0.462, "nearestLandUse": "residential", "roadAccessScore": 0.8, "settlementProximityScore": 1.0, "landUseAdjacencyScore": 0.0, "substationAccessScore": 1.0, "transmissionProxyScore": 1.0, "graphNodeCount": 16, "graphEdgeCount": 22, "connectedSubstationCount30km": 2, "connectedTransmissionCount20km": 4, "directConnectedSubstationCount": 2, "directConnectedTransmissionCount": 2, "metadataRichSubstationCount30km": 2, "metadataRichTransmissionCount20km": 9, "distributionSubstationCount30km": 0, "gridConnectionCandidateCount": 4, "hasConnectedGridCandidate": true, "roadSettlementSupportFlag": 1, "graphGridPathSteps": 1.0, "nearestConnectedSubstationDistanceKm": 0.565, "nearestSiteSideGridDistanceKm": 0.462, "substationTransmissionBridgeCount": 14, "metadataRichBridgeCount": 5, "maxNearbyGridVoltageKv": 230.0, "gridMetadataScore": 0.695, "gridEvidenceClass": "transmission_grade_connected", "gridEvidenceReason": "2 direct connected substations within 0.5 km, 9 transmission lines, 5 credible substation-line bridges; max mapped voltage 230 kV.", "pendingSignals": [ ] }, "geometry": { "type": "Point", "coordinates": [ 123.477, 10.598 ] } },
{ "type": "Feature", "properties": { "projectId": "PHL-S-006", "projectName": "Armenia Solar Power Project", "countryCode": "PHL", "technology": "solar", "paperToPowerLabel": "observed_smaller_than_claimed", "contextScoreVersion": "v2-local-graph", "contextScore": 0.602, "partialContextScore": 0.1, "proximityContextScore": 0.648, "graphContextScoreVersion": "v2-local-graph", "graphContextScore": 0.493, "nearbyObservedAssetCount5km": 1, "nearbySameTechAssetCount5km": 1, "nearestSameTechObservedDistanceKm": 0.0, "matchedLandCoverClass": "landcover_10", "roadDistanceKm": 0.48, "settlementDistanceKm": 3.663, "landUseDistanceKm": 1.264, "substationDistanceKm": 6.6, "transmissionDistanceKm": 7.598, "nearestLandUse": "farmland", "roadAccessScore": 1.0, "settlementProximityScore": 1.0, "landUseAdjacencyScore": 0.55, "substationAccessScore": 0.75, "transmissionProxyScore": 0.5, "graphNodeCount": 26, "graphEdgeCount": 28, "connectedSubstationCount30km": 1, "connectedTransmissionCount20km": 12, "directConnectedSubstationCount": 1, "directConnectedTransmissionCount": 1, "metadataRichSubstationCount30km": 3, "metadataRichTransmissionCount20km": 18, "distributionSubstationCount30km": 2, "gridConnectionCandidateCount": 2, "hasConnectedGridCandidate": true, "roadSettlementSupportFlag": 1, "graphGridPathSteps": 1.0, "nearestConnectedSubstationDistanceKm": 10.146, "nearestSiteSideGridDistanceKm": 9.141, "substationTransmissionBridgeCount": 20, "metadataRichBridgeCount": 12, "maxNearbyGridVoltageKv": 230.0, "gridMetadataScore": 0.78, "gridEvidenceClass": "transmission_grade_connected", "gridEvidenceReason": "1 direct connected substations within 9.1 km, 18 transmission lines, 12 credible substation-line bridges; max mapped voltage 230 kV.", "pendingSignals": [ ] }, "geometry": { "type": "Point", "coordinates": [ 120.551, 15.43 ] } },
{ "type": "Feature", "properties": { "projectId": "SGP-S-001", "projectName": "Sembcorp Tengeh Floating Solar Farm", "countryCode": "SGP", "technology": "solar", "paperToPowerLabel": "observed_smaller_than_claimed", "contextScoreVersion": "v2-local-graph", "contextScore": 0.608, "partialContextScore": 0.4, "proximityContextScore": 0.735, "graphContextScoreVersion": "v2-local-graph", "graphContextScore": 0.311, "nearbyObservedAssetCount5km": 4, "nearbySameTechAssetCount5km": 4, "nearestSameTechObservedDistanceKm": 0.0, "matchedLandCoverClass": "landcover_210", "roadDistanceKm": 0.533, "settlementDistanceKm": 1.132, "landUseDistanceKm": 0.237, "substationDistanceKm": 0.928, "transmissionDistanceKm": 6.25, "nearestLandUse": "railway", "roadAccessScore": 1.0, "settlementProximityScore": 1.0, "landUseAdjacencyScore": 0.5, "substationAccessScore": 1.0, "transmissionProxyScore": 0.5, "graphNodeCount": 140, "graphEdgeCount": 49, "connectedSubstationCount30km": 1, "connectedTransmissionCount20km": 20, "directConnectedSubstationCount": 0, "directConnectedTransmissionCount": 0, "metadataRichSubstationCount30km": 4, "metadataRichTransmissionCount20km": 33, "distributionSubstationCount30km": 9, "gridConnectionCandidateCount": 0, "hasConnectedGridCandidate": false, "roadSettlementSupportFlag": 1, "graphGridPathSteps": 3.0, "nearestConnectedSubstationDistanceKm": null, "nearestSiteSideGridDistanceKm": null, "substationTransmissionBridgeCount": 41, "metadataRichBridgeCount": 20, "maxNearbyGridVoltageKv": 500.0, "gridMetadataScore": 0.925, "gridEvidenceClass": "power_infrastructure_nearby_but_ambiguous", "gridEvidenceReason": "max mapped voltage 500 kV; 4 substations, 33 transmission lines, 20 credible bridges, but no confirmed site-side connected candidate.", "pendingSignals": [ ] }, "geometry": { "type": "Point", "coordinates": [ 103.636, 1.3364 ] } },
{ "type": "Feature", "properties": { "projectId": "VNM-S-001", "projectName": "Trungnam Solar Farm (Thuan Bac)", "countryCode": "VNM", "technology": "solar", "paperToPowerLabel": "observed_smaller_than_claimed", "contextScoreVersion": "v2-local-graph", "contextScore": 0.909, "partialContextScore": 1.0, "proximityContextScore": 0.907, "graphContextScoreVersion": "v2-local-graph", "graphContextScore": 0.912, "nearbyObservedAssetCount5km": 81, "nearbySameTechAssetCount5km": 22, "nearestSameTechObservedDistanceKm": 0.0, "matchedLandCoverClass": "landcover_10", "roadDistanceKm": 1.671, "settlementDistanceKm": 1.737, "landUseDistanceKm": 0.132, "substationDistanceKm": 0.354, "transmissionDistanceKm": 0.115, "nearestLandUse": "farmland", "roadAccessScore": 0.8, "settlementProximityScore": 1.0, "landUseAdjacencyScore": 0.65, "substationAccessScore": 1.0, "transmissionProxyScore": 1.0, "graphNodeCount": 41, "graphEdgeCount": 45, "connectedSubstationCount30km": 4, "connectedTransmissionCount20km": 26, "directConnectedSubstationCount": 2, "directConnectedTransmissionCount": 3, "metadataRichSubstationCount30km": 4, "metadataRichTransmissionCount20km": 28, "distributionSubstationCount30km": 0, "gridConnectionCandidateCount": 5, "hasConnectedGridCandidate": true, "roadSettlementSupportFlag": 1, "graphGridPathSteps": 1.0, "nearestConnectedSubstationDistanceKm": 0.354, "nearestSiteSideGridDistanceKm": 0.115, "substationTransmissionBridgeCount": 37, "metadataRichBridgeCount": 34, "maxNearbyGridVoltageKv": 220.0, "gridMetadataScore": 0.94, "gridEvidenceClass": "transmission_grade_connected", "gridEvidenceReason": "2 direct connected substations within 0.1 km, 28 transmission lines, 34 credible substation-line bridges; max mapped voltage 220 kV.", "pendingSignals": [ ] }, "geometry": { "type": "Point", "coordinates": [ 109.0268, 11.68597 ] } },
{ "type": "Feature", "properties": { "projectId": "VNM-S-002", "projectName": "Dau Tieng Solar Power Complex", "countryCode": "VNM", "technology": "solar", "paperToPowerLabel": "observed_smaller_than_claimed", "contextScoreVersion": "v2-local-graph", "contextScore": 0.683, "partialContextScore": 0.3, "proximityContextScore": 0.7, "graphContextScoreVersion": "v2-local-graph", "graphContextScore": 0.643, "nearbyObservedAssetCount5km": 3, "nearbySameTechAssetCount5km": 3, "nearestSameTechObservedDistanceKm": 0.0, "matchedLandCoverClass": "landcover_180", "roadDistanceKm": 1.839, "settlementDistanceKm": 5.111, "landUseDistanceKm": null, "substationDistanceKm": 3.851, "transmissionDistanceKm": 2.519, "nearestLandUse": null, "roadAccessScore": 0.8, "settlementProximityScore": 0.8, "landUseAdjacencyScore": null, "substationAccessScore": 0.75, "transmissionProxyScore": 0.8, "graphNodeCount": 33, "graphEdgeCount": 28, "connectedSubstationCount30km": 2, "connectedTransmissionCount20km": 7, "directConnectedSubstationCount": 2, "directConnectedTransmissionCount": 1, "metadataRichSubstationCount30km": 2, "metadataRichTransmissionCount20km": 15, "distributionSubstationCount30km": 0, "gridConnectionCandidateCount": 3, "hasConnectedGridCandidate": true, "roadSettlementSupportFlag": 1, "graphGridPathSteps": 1.0, "nearestConnectedSubstationDistanceKm": 3.851, "nearestSiteSideGridDistanceKm": 2.519, "substationTransmissionBridgeCount": 20, "metadataRichBridgeCount": 7, "maxNearbyGridVoltageKv": 220.0, "gridMetadataScore": 0.705, "gridEvidenceClass": "transmission_grade_connected", "gridEvidenceReason": "2 direct connected substations within 2.5 km, 15 transmission lines, 7 credible substation-line bridges; max mapped voltage 220 kV.", "pendingSignals": [ ] }, "geometry": { "type": "Point", "coordinates": [ 106.2132, 11.45169 ] } },
{ "type": "Feature", "properties": { "projectId": "VNM-S-003", "projectName": "Xuan Thien Ea Sup Solar Power Complex", "countryCode": "VNM", "technology": "solar", "paperToPowerLabel": "observed_smaller_than_claimed", "contextScoreVersion": "v2-local-graph", "contextScore": 0.467, "partialContextScore": 0.1, "proximityContextScore": 0.638, "graphContextScoreVersion": "v2-local-graph", "graphContextScore": 0.069, "nearbyObservedAssetCount5km": 1, "nearbySameTechAssetCount5km": 1, "nearestSameTechObservedDistanceKm": 0.0, "matchedLandCoverClass": "landcover_10", "roadDistanceKm": 0.426, "settlementDistanceKm": 0.452, "landUseDistanceKm": null, "substationDistanceKm": null, "transmissionDistanceKm": 6.619, "nearestLandUse": null, "roadAccessScore": 1.0, "settlementProximityScore": 1.0, "landUseAdjacencyScore": null, "substationAccessScore": null, "transmissionProxyScore": 0.5, "graphNodeCount": 8, "graphEdgeCount": 5, "connectedSubstationCount30km": 0, "connectedTransmissionCount20km": 0, "directConnectedSubstationCount": 0, "directConnectedTransmissionCount": 0, "metadataRichSubstationCount30km": 0, "metadataRichTransmissionCount20km": 5, "distributionSubstationCount30km": 0, "gridConnectionCandidateCount": 0, "hasConnectedGridCandidate": false, "roadSettlementSupportFlag": 1, "graphGridPathSteps": null, "nearestConnectedSubstationDistanceKm": null, "nearestSiteSideGridDistanceKm": null, "substationTransmissionBridgeCount": 0, "metadataRichBridgeCount": 0, "maxNearbyGridVoltageKv": 500.0, "gridMetadataScore": 0.195, "gridEvidenceClass": "power_infrastructure_nearby_but_ambiguous", "gridEvidenceReason": "max mapped voltage 500 kV; 0 substations, 5 transmission lines, 0 credible bridges, but no confirmed site-side connected candidate.", "pendingSignals": [ ] }, "geometry": { "type": "Point", "coordinates": [ 107.88506, 13.06619 ] } },
{ "type": "Feature", "properties": { "projectId": "VNM-S-004", "projectName": "Hoa Hoi Solar Power Plant", "countryCode": "VNM", "technology": "solar", "paperToPowerLabel": "observed_smaller_than_claimed", "contextScoreVersion": "v2-local-graph", "contextScore": 0.733, "partialContextScore": 0.3, "proximityContextScore": 0.688, "graphContextScoreVersion": "v2-local-graph", "graphContextScore": 0.837, "nearbyObservedAssetCount5km": 3, "nearbySameTechAssetCount5km": 3, "nearestSameTechObservedDistanceKm": 0.0, "matchedLandCoverClass": "landcover_20", "roadDistanceKm": 6.02, "settlementDistanceKm": 7.556, "landUseDistanceKm": null, "substationDistanceKm": 4.571, "transmissionDistanceKm": 0.139, "nearestLandUse": null, "roadAccessScore": 0.55, "settlementProximityScore": 0.8, "landUseAdjacencyScore": null, "substationAccessScore": 0.75, "transmissionProxyScore": 1.0, "graphNodeCount": 54, "graphEdgeCount": 26, "connectedSubstationCount30km": 2, "connectedTransmissionCount20km": 15, "directConnectedSubstationCount": 2, "directConnectedTransmissionCount": 3, "metadataRichSubstationCount30km": 2, "metadataRichTransmissionCount20km": 45, "distributionSubstationCount30km": 0, "gridConnectionCandidateCount": 5, "hasConnectedGridCandidate": true, "roadSettlementSupportFlag": 1, "graphGridPathSteps": 1.0, "nearestConnectedSubstationDistanceKm": 4.571, "nearestSiteSideGridDistanceKm": 0.139, "substationTransmissionBridgeCount": 18, "metadataRichBridgeCount": 17, "maxNearbyGridVoltageKv": 220.0, "gridMetadataScore": 0.78, "gridEvidenceClass": "transmission_grade_connected", "gridEvidenceReason": "2 direct connected substations within 0.1 km, 45 transmission lines, 17 credible substation-line bridges; max mapped voltage 220 kV.", "pendingSignals": [ ] }, "geometry": { "type": "Point", "coordinates": [ 109.1558, 13.0489 ] } },
{ "type": "Feature", "properties": { "projectId": "VNM-W-001", "projectName": "Dien Bien 1 Wind Power Plant", "countryCode": "VNM", "technology": "wind", "paperToPowerLabel": "claimed_not_observed", "contextScoreVersion": "v2-local-graph", "contextScore": 0.515, "partialContextScore": 0.0, "proximityContextScore": 0.718, "graphContextScoreVersion": "v2-local-graph", "graphContextScore": 0.043, "nearbyObservedAssetCount5km": 0, "nearbySameTechAssetCount5km": 0, "nearestSameTechObservedDistanceKm": null, "matchedLandCoverClass": null, "roadDistanceKm": 0.278, "settlementDistanceKm": 0.198, "landUseDistanceKm": null, "substationDistanceKm": 3.213, "transmissionDistanceKm": 2.387, "nearestLandUse": null, "roadAccessScore": 1.0, "settlementProximityScore": 1.0, "landUseAdjacencyScore": null, "substationAccessScore": 0.75, "transmissionProxyScore": 0.8, "graphNodeCount": 8, "graphEdgeCount": 9, "connectedSubstationCount30km": 0, "connectedTransmissionCount20km": 0, "directConnectedSubstationCount": 0, "directConnectedTransmissionCount": 0, "metadataRichSubstationCount30km": 0, "metadataRichTransmissionCount20km": 0, "distributionSubstationCount30km": 0, "gridConnectionCandidateCount": 0, "hasConnectedGridCandidate": false, "roadSettlementSupportFlag": 1, "graphGridPathSteps": null, "nearestConnectedSubstationDistanceKm": null, "nearestSiteSideGridDistanceKm": null, "substationTransmissionBridgeCount": 2, "metadataRichBridgeCount": 0, "maxNearbyGridVoltageKv": null, "gridMetadataScore": 0.0, "gridEvidenceClass": "no_credible_grid_evidence", "gridEvidenceReason": "No transmission-grade substation-line topology found in the local free-source context layers.", "pendingSignals": [ ] }, "geometry": { "type": "Point", "coordinates": [ 103.018, 21.386 ] } },
{ "type": "Feature", "properties": { "projectId": "VNM-W-002", "projectName": "Nam Bung Wind Power Plant", "countryCode": "VNM", "technology": "wind", "paperToPowerLabel": "claimed_not_observed", "contextScoreVersion": "v2-local-graph", "contextScore": 0.448, "partialContextScore": 0.0, "proximityContextScore": 0.622, "graphContextScoreVersion": "v2-local-graph", "graphContextScore": 0.043, "nearbyObservedAssetCount5km": 0, "nearbySameTechAssetCount5km": 0, "nearestSameTechObservedDistanceKm": null, "matchedLandCoverClass": null, "roadDistanceKm": 0.49, "settlementDistanceKm": 6.857, "landUseDistanceKm": null, "substationDistanceKm": null, "transmissionDistanceKm": null, "nearestLandUse": null, "roadAccessScore": 1.0, "settlementProximityScore": 0.8, "landUseAdjacencyScore": null, "substationAccessScore": null, "transmissionProxyScore": null, "graphNodeCount": 3, "graphEdgeCount": 2, "connectedSubstationCount30km": 0, "connectedTransmissionCount20km": 0, "directConnectedSubstationCount": 0, "directConnectedTransmissionCount": 0, "metadataRichSubstationCount30km": 0, "metadataRichTransmissionCount20km": 0, "distributionSubstationCount30km": 0, "gridConnectionCandidateCount": 0, "hasConnectedGridCandidate": false, "roadSettlementSupportFlag": 1, "graphGridPathSteps": null, "nearestConnectedSubstationDistanceKm": null, "nearestSiteSideGridDistanceKm": null, "substationTransmissionBridgeCount": 0, "metadataRichBridgeCount": 0, "maxNearbyGridVoltageKv": null, "gridMetadataScore": 0.0, "gridEvidenceClass": "no_credible_grid_evidence", "gridEvidenceReason": "No transmission-grade substation-line topology found in the local free-source context layers.", "pendingSignals": [ ] }, "geometry": { "type": "Point", "coordinates": [ 104.281, 21.735 ] } }
]
}
